H1 CPF  1  HTS 2024  1 29 13  5281 jason3 NONE
H2  1600201 4379    41240 2024  1 28  0  0  0 2024  2  2  0  0  0   240 1 1  0 0 1
H9
10 0 60338 62160.000000 0 4009773.443 -2340605.139 -6163914.975
10 0 60338 62400.000000 0 3607588.623 -840832.788 -6769311.526
10 0 60338 62640.000000 0 3081036.617 716660.441 -7038172.999
10 0 60338 62880.000000 0 2456866.028 2258970.364 -6957223.058
10 0 60338 63120.000000 0 1764021.647 3712963.998 -6530446.868
10 0 60338 63360.000000 0 1032307.530 5008752.786 -5778910.408
10 0 60338 63600.000000 0 291132.982 6083087.388 -4739782.482
10 0 60338 63840.000000 0 -431618.661 6882524.450 -3464578.129
10 0 60338 64080.000000 0 -1110566.394 7366199.853 -2016670.818
10 0 60338 64320.000000 0 -1723620.619 7508039.047 -468169.220
10 0 60338 64560.000000 0 -2252560.355 7298258.559 1103693.740
10 0 60338 64800.000000 0 -2683389.899 6744046.786 2620478.528
10 0 60338 65040.000000 0 -3006469.755 5869344.601 4006539.655
10 0 60338 65280.000000 0 -3216431.478 4713739.925 5192855.532
10 0 60338 65520.000000 0 -3311910.545 3330564.183 6120474.339
10 0 60338 65760.000000 0 -3295145.105 1784314.634 6743405.381
10 0 60338 66000.000000 0 -3171493.191 147554.057 7030828.629
10 0 60338 66240.000000 0 -2948920.241 -1502546.688 6968547.052
10 0 60338 66480.000000 0 -2637501.009 -3087865.851 6559646.341
10 0 60338 66720.000000 0 -2248966.618 -4533042.119 5824352.032
10 0 60338 66960.000000 0 -1796311.580 -5769092.675 4799079.556
10 0 60338 67200.000000 0 -1293466.033 -6736777.368 3534704.247
10 0 60338 67440.000000 0 -755024.295 -7389551.387 2094099.833
10 0 60338 67680.000000 0 -196016.459 -7695932.757 549036.212
10 0 60338 67920.000000 0 368289.418 -7641134.371 -1023421.912
10 0 60338 68160.000000 0 922569.382 -7227836.119 -2544828.151
10 0 60338 68400.000000 0 1451620.865 -6476036.579 -3939345.130
10 0 60338 68640.000000 0 1940546.405 -5422002.026 -5137577.898
10 0 60338 68880.000000 0 2374956.600 -4116391.088 -6080034.018
10 0 60338 69120.000000 0 2741207.056 -2621688.827 -6720031.885
10 0 60338 69360.000000 0 3026682.086 -1009116.064 -7025933.480
10 0 60338 69600.000000 0 3220136.750 644819.144 -6982632.753
10 0 60338 69840.000000 0 3312102.554 2261968.634 -6592256.614
10 0 60338 70080.000000 0 3295354.498 3766237.226 -5874068.359
10 0 60338 70320.000000 0 3165417.674 5087182.592 -4863576.224
10 0 60338 70560.000000 0 2921078.134 6163375.201 -3610860.957
10 0 60338 70800.000000 0 2564849.897 6945357.118 -2178164.567
10 0 60338 71040.000000 0 2103345.072 7398038.038 -636829.338
10 0 60338 71280.000000 0 1547492.439 7502377.525 936278.188
10 0 60338 71520.000000 0 912563.874 7256232.825 2462664.516
10 0 60338 71760.000000 0 217983.956 6674322.002 3866200.901
10 0 60338 72000.000000 0 -513092.030 5787312.398 5076981.204
10 0 60338 72240.000000 0 -1254426.895 4640099.238 6034826.122
10 0 60338 72480.000000 0 -1977552.189 3289401.798 6692237.971
10 0 60338 72720.000000 0 -2652794.570 1800854.133 7016684.331
10 0 60338 72960.000000 0 -3250451.876 245748.293 6992136.986
10 0 60338 73200.000000 0 -3742083.564 -1302411.699 6619819.267
10 0 60338 73440.000000 0 -4101869.427 -2771394.705 5918145.397
10 0 60338 73680.000000 0 -4307984.399 -4093628.709 4921859.761
10 0 60338 73920.000000 0 -4343918.608 -5209355.114 3680387.473
10 0 60338 74160.000000 0 -4199657.737 -6069401.903 2255446.595
10 0 60338 74400.000000 0 -3872636.692 -6637439.687 718010.023
10 0 60338 74640.000000 0 -3368377.382 -6891586.238 -855250.330
10 0 60338 74880.000000 0 -2700740.922 -6825257.981 -2385849.491
10 0 60338 75120.000000 0 -1891750.540 -6447214.663 -3797483.189
10 0 60338 75360.000000 0 -970976.306 -5780804.389 -5019890.797
10 0 60338 75600.000000 0 25492.606 -4862480.141 -5992363.663
10 0 60338 75840.000000 0 1056437.445 -3739711.893 -6666718.726
10 0 60338 76080.000000 0 2077197.918 -2468441.163 -7009610.415
10 0 60338 76320.000000 0 3041590.222 -1110233.504 -7004101.640
10 0 60338 76560.000000 0 3903985.435 270728.771 -6650452.869
10 0 60338 76800.000000 0 4621469.926 1610681.504 -5966110.915
10 0 60338 77040.000000 0 5156005.816 2849222.767 -4984901.654
10 0 60338 77280.000000 0 5476493.107 3932054.355 -3755440.333
10 0 60338 77520.000000 0 5560617.230 4813406.115 -2338798.470
10 0 60338 77760.000000 0 5396356.190 5458024.569 -805505.859
10 0 60338 78000.000000 0 4983028.016 5842612.317 767978.165
10 0 60338 78240.000000 0 4331782.691 5956636.222 2303137.464
10 0 60338 78480.000000 0 3465482.246 5802461.986 3723395.096
10 0 60338 78720.000000 0 2417958.706 5394818.070 4957998.610
10 0 60338 78960.000000 0 1232686.637 4759647.049 5945569.182
10 0 60338 79200.000000 0 -39057.400 3932442.977 6637125.099
10 0 60338 79440.000000 0 -1340445.180 2956209.096 6998440.821
10 0 60338 79680.000000 0 -2611650.699 1879168.695 7011664.826
10 0 60338 79920.000000 0 -3792602.495 752352.892 6676152.975
10 0 60338 80160.000000 0 -4825831.327 -372826.192 6008499.592
10 0 60338 80400.000000 0 -5659298.811 -1446919.249 5041759.208
10 0 60338 80640.000000 0 -6249079.402 -2424608.991 3823879.725
10 0 60338 80880.000000 0 -6561756.123 -3266623.849 2415391.540
10 0 60338 81120.000000 0 -6576385.318 -3941312.107 886435.567
10 0 60338 81360.000000 0 -6285890.769 -4425801.010 -686745.484
10 0 60338 81600.000000 0 -5697768.768 -4706680.134 -2225669.036
10 0 60338 81840.000000 0 -4834035.199 -4780178.605 -3653607.554
10 0 60338 82080.000000 0 -3730404.815 -4651842.508 -4899474.754
10 0 60338 82320.000000 0 -2434756.289 -4335762.576 -5901380.408
10 0 60338 82560.000000 0 -1004978.073 -3853431.204 -6609669.770
10 0 60338 82800.000000 0 493681.188 -3232327.019 -6989312.119
10 0 60338 83040.000000 0 1991622.179 -2504329.842 -7021552.177
10 0 60338 83280.000000 0 3418131.561 -1704065.282 -6704784.868
10 0 60338 83520.000000 0 4704724.218 -867255.139 -6054634.199
10 0 60338 83760.000000 0 5788455.289 -29139.889 -5103229.243
10 0 60338 84000.000000 0 6615063.159 776972.229 -3897696.266
10 0 60338 84240.000000 0 7141788.932 1520982.720 -2497901.187
10 0 60338 84480.000000 0 7339709.291 2177060.916 -973520.842
10 0 60338 84720.000000 0 7195424.340 2724445.449 599436.018
10 0 60338 84960.000000 0 6711962.998 3147956.146 2142477.829
10 0 60338 85200.000000 0 5908833.524 3438199.920 3578624.441
10 0 60338 85440.000000 0 4821208.354 3591481.010 4836316.548
10 0 60338 85680.000000 0 3498291.060 3609445.878 5853010.347
10 0 60338 85920.000000 0 2000976.646 3498515.770 6578266.201
10 0 60338 86160.000000 0 398948.550 3269168.478 6976185.092
10 0 60339 0.000000 0 -1232623.686 2935140.347 7027107.744
10 0 60339 240.000000 0 -2816635.510 2512608.377 6728529.829
10 0 60339 480.000000 0 -4277698.152 2019401.792 6095216.243
10 0 60339 720.000000 0 -5545751.580 1474275.467 5158515.425
10 0 60339 960.000000 0 -6559490.439 896262.256 3964877.222
10 0 60339 1200.000000 0 -7269428.740 304115.978 2573615.061
10 0 60339 1440.000000 0 -7640440.689 -284149.452 1053999.215
10 0 60339 1680.000000 0 -7653620.657 -851627.543 -518200.953
10 0 60339 1920.000000 0 -7307321.943 -1382795.614 -2064552.047
10 0 60339 2160.000000 0 -6617293.267 -1863704.652 -3507946.599
10 0 60339 2400.000000 0 -5615901.656 -2282094.376 -4776513.369
10 0 60339 2640.000000 0 -4350498.325 -2627447.347 -5807219.355
10 0 60339 2880.000000 0 -2881048.716 -2891006.747 -6548971.409
10 0 60339 3120.000000 0 -1277181.272 -3065786.736 -6965077.864
10 0 60339 3360.000000 0 385178.400 -3146603.068 -7034982.097
10 0 60339 3600.000000 0 2027424.712 -3130146.954 -6755219.885
10 0 60339 3840.000000 0 3571990.267 -3015114.748 -6139584.767
10 0 60339 4080.000000 0 4946026.244 -2802388.309 -5218494.108
10 0 60339 4320.000000 0 6084888.673 -2495247.323 -4037560.160
10 0 60339 4560.000000 0 6935271.629 -2099586.139 -2655410.991
10 0 60339 4800.000000 0 7457828.734 -1624095.488 -1140828.057
10 0 60339 5040.000000 0 7629116.813 -1080368.906 430680.317
10 0 60339 5280.000000 0 7442732.170 -482898.446 1980695.188
10 0 60339 5520.000000 0 6909554.386 151067.340 3431880.321
10 0 60339 5760.000000 0 6057078.350 801816.548 4711913.691
10 0 60339 6000.000000 0 4927892.982 1447620.446 5757124.065
10 0 60339 6240.000000 0 3577424.840 2065328.510 6515640.422
10 0 60339 6480.000000 0 2071096.378 2631100.646 6949907.365
10 0 60339 6720.000000 0 481071.810 3121261.531 7038466.563
10 0 60339 6960.000000 0 -1117241.101 3513258.183 6776958.087
10 0 60339 7200.000000 0 -2648780.652 3786693.418 6178317.638
10 0 60339 7440.000000 0 -4042365.568 3924398.298 5272170.343
10 0 60339 7680.000000 0 -5234039.547 3913494.294 4103437.756
10 0 60339 7920.000000 0 -6170084.199 3746374.245 2730183.729
10 0 60339 8160.000000 0 -6809539.251 3421522.843 1220770.915
10 0 60339 8400.000000 0 -7126087.135 2944104.241 -349547.057
10 0 60339 8640.000000 0 -7109184.475 2326247.998 -1902428.837
10 0 60339 8880.000000 0 -6764364.734 1586985.899 -3360430.527
10 0 60339 9120.000000 0 -6112696.199 751822.819 -4650936.940
10 0 60339 9360.000000 0 -5189448.441 -148049.281 -5709807.705
10 0 60339 9600.000000 0 -4042079.539 -1076862.151 -6484540.888
10 0 60339 9840.000000 0 -2727689.405 -1995657.355 -6936807.334
10 0 60339 10080.000000 0 -1310102.846 -2863890.223 -7044263.296
10 0 60339 10320.000000 0 143264.018 -3641198.002 -6801593.443
10 0 60339 10560.000000 0 1564615.011 -4289272.260 -6220760.104
10 0 60339 10800.000000 0 2888936.438 -4773765.169 -5330453.638
10 0 60339 11040.000000 0 4056990.795 -5066144.744 -4174751.421
10 0 60339 11280.000000 0 5018014.579 -5145395.128 -2811015.175
10 0 60339 11520.000000 0 5731991.352 -4999454.680 -1307096.283
10 0 60339 11760.000000 0 6171377.368 -4626279.358 262039.393
10 0 60339 12000.000000 0 6322175.375 -4034432.815 1818097.067
10 0 60339 12240.000000 0 6184292.204 -3243137.579 3283437.187
10 0 60339 12480.000000 0 5771166.918 -2281761.424 4585022.434
10 0 60339 12720.000000 0 5108714.742 -1188758.151 5658095.684
10 0 60339 12960.000000 0 4233680.470 -10119.779 6449389.945
10 0 60339 13200.000000 0 3191527.087 1202578.629 6919716.663
99